NORAD_CAT_ID,OBJECT_NAME,OBJECT_TYPE,EPOCH,MEAN_MOTION,ECCENTRICITY,INCLINATION,RA_OF_ASC_NODE,ARG_OF_PERICENTER,MEAN_ANOMALY,BSTAR,MEAN_MOTION_DOT,MEAN_MOTION_DDOT,TLE_LINE0,TLE_LINE1,TLE_LINE2,SEMIMAJOR_AXIS,PERIOD,APOGEE,PERIGEE,DECAYED
49445.0,STARLINK-3122,PAYLOAD,2024-03-29 12:08:56,15.0884504,0.0001673,53.2173,167.6512,105.8055,254.3122,-1.821e-05,-5.78e-06,0.0,0 STARLINK-3122,1 49445U 21104AP  24089.50621208 -.00000578  00000-0 -18210-4 0  9999,2 49445  53.2173 167.6512 0001673 105.8055 254.3122 15.08845040131557,6917.865,95.437,540.887,538.573,0.0
49445.0,STARLINK-3122,PAYLOAD,2024-03-29 21:41:14,15.08855144,0.0001739,53.2179,165.8695,109.766,250.352,5.8794e-05,6.48e-06,0.0,0 STARLINK-3122,1 49445U 21104AP  24089.90364143  .00000648  00000-0  58794-4 0  9992,2 49445  53.2179 165.8695 0001739 109.7660 250.3520 15.08855144131614,6917.834,95.437,540.902,538.496,0.0
49445.0,STARLINK-3122,PAYLOAD,2024-03-30 04:02:47,15.08842548,0.0001891,53.2193,164.6855,115.121,244.9978,0.00010545,1.391e-05,0.0,0 STARLINK-3122,1 49445U 21104AP  24090.16860599  .00001391  00000-0  10545-3 0  9995,2 49445  53.2193 164.6855 0001891 115.1210 244.9978 15.08842548132730,6917.873,95.437,541.046,538.429,0.0
49445.0,STARLINK-3122,PAYLOAD,2024-03-30 11:59:43,15.08834668,0.0001824,53.2189,163.1979,113.9613,246.1571,1.5535e-05,-4.1e-07,0.0,0 STARLINK-3122,1 49445U 21104AP  24090.49981323 -.00000041  00000-0  15535-4 0  9997,2 49445  53.2189 163.1979 0001824 113.9613 246.1571 15.08834668132787,6917.897,95.438,541.024,538.5,0.0
49445.0,STARLINK-3122,PAYLOAD,2024-03-30 21:32:01,15.08846229,0.0001541,53.2176,161.4108,99.9606,260.156,6.7192e-05,7.82e-06,0.0,0 STARLINK-3122,1 49445U 21104AP  24090.89724519  .00000782  00000-0  67192-4 0  9990,2 49445  53.2176 161.4108 0001541  99.9606 260.1560 15.08846229131766,6917.861,95.437,540.792,538.66,0.0
49445.0,STARLINK-3122,PAYLOAD,2024-03-31 03:53:34,15.08838507,0.0001677,53.2183,160.2229,107.8112,252.3064,0.00011863,1.6e-05,0.0,0 STARLINK-3122,1 49445U 21104AP  24091.16220804  .00001600  00000-0  11863-3 0  9992,2 49445  53.2183 160.2229 0001677 107.8112 252.3064 15.08838507132882,6917.885,95.438,540.91,538.59,0.0
49445.0,STARLINK-3122,PAYLOAD,2024-03-31 13:25:53,15.08837173,0.0001628,53.2187,158.4383,106.3579,253.7592,0.00011215,1.497e-05,0.0,0 STARLINK-3122,1 49445U 21104AP  24091.55964999  .00001497  00000-0  11215-3 0  9990,2 49445  53.2187 158.4383 0001628 106.3579 253.7592 15.08837173131869,6917.889,95.438,540.88,538.628,0.0
49445.0,STARLINK-3122,PAYLOAD,2024-04-01 13:16:41,15.08833159,0.00013,53.2163,153.9732,95.0555,265.0585,-2.0656e-05,-6.17e-06,0.0,0 STARLINK-3122,1 49445U 21104AP  24092.55325793 -.00000617  00000-0 -20656-4 0  9999,2 49445  53.2163 153.9732 0001300  95.0555 265.0585 15.08833159133091,6917.901,95.438,540.666,538.867,0.0
49445.0,STARLINK-3122,PAYLOAD,2024-04-01 21:13:36,15.08840562,0.0001376,53.2173,152.4866,87.1562,272.9588,-2.0129e-05,-6.08e-06,0.0,0 STARLINK-3122,1 49445U 21104AP  24092.88445421 -.00000608  00000-0 -20129-4 0  9991,2 49445  53.2173 152.4866 0001376  87.1562 272.9588 15.08840562133149,6917.879,95.438,540.696,538.792,0.0
49445.0,STARLINK-3122,PAYLOAD,2024-04-02 09:56:41,15.08835235,0.0001203,53.2165,150.109,92.5189,267.5941,0.00011382,1.524e-05,0.0,0 STARLINK-3122,1 49445U 21104AP  24093.41437431  .00001524  00000-0  11382-3 0  9999,2 49445  53.2165 150.1090 0001203  92.5189 267.5941 15.08835235132141,6917.895,95.438,540.592,538.928,0.0
49445.0,STARLINK-3122,PAYLOAD,2024-04-02 21:04:22,15.0885108,0.0001384,53.2167,148.0276,87.0037,273.1113,8.4707e-05,1.061e-05,0.0,0 STARLINK-3122,1 49445U 21104AP  24093.87804375  .00001061  00000-0  84707-4 0  9992,2 49445  53.2167 148.0276 0001384  87.0037 273.1113 15.08851080133293,6917.847,95.437,540.669,538.754,0.0
49445.0,STARLINK-3122,PAYLOAD,2024-04-03 03:25:55,15.08834292,0.0001415,53.2161,146.8406,82.486,277.6293,0.00023404,3.438e-05,0.0,0 STARLINK-3122,1 49445U 21104AP  24094.14300775  .00003438  00000-0  23404-3 0  9994,2 49445  53.2161 146.8406 0001415  82.4860 277.6293 15.08834292133335,6917.898,95.438,540.742,538.784,0.0
49445.0,STARLINK-3122,PAYLOAD,2024-04-03 12:58:14,15.08839573,0.0001477,53.2176,145.0521,96.4847,263.6314,8.0602e-05,9.95e-06,0.0,0 STARLINK-3122,1 49445U 21104AP  24094.54045088  .00000995  00000-0  80602-4 0  9990,2 49445  53.2176 145.0521 0001477  96.4847 263.6314 15.08839573132311,6917.882,95.438,540.768,538.725,0.0
49445.0,STARLINK-3122,PAYLOAD,2024-04-03 20:55:10,15.08838055,0.0001498,53.2176,143.5646,96.1591,263.9572,9.1731e-05,1.172e-05,0.0,0 STARLINK-3122,1 49445U 21104AP  24094.87165150  .00001172  00000-0  91731-4 0  9992,2 49445  53.2176 143.5646 0001498  96.1591 263.9572 15.08838055132366,6917.886,95.438,540.788,538.715,0.0
49445.0,STARLINK-3122,PAYLOAD,2024-04-04 09:38:15,15.0883722,0.0001272,53.2162,141.1885,86.3518,273.7619,6.4555e-06,-1.85e-06,0.0,0 STARLINK-3122,1 49445U 21104AP  24095.40157339 -.00000185  00000-0  64555-5 0  9991,2 49445  53.2162 141.1885 0001272  86.3518 273.7619 15.08837220133523,6917.889,95.438,540.634,538.874,0.0
49445.0,STARLINK-3122,PAYLOAD,2024-04-05 09:29:01,15.0888615,0.0001124,53.2161,136.7281,84.0455,276.0666,-0.00055374,-9.101e-05,0.0,0 STARLINK-3122,1 49445U 21104AP  24096.39515807 -.00009101  00000-0 -55374-3 0  9993,2 49445  53.2161 136.7281 0001124  84.0455 276.0666 15.08886150133673,6917.739,95.435,540.382,538.827,0.0
49445.0,STARLINK-3122,PAYLOAD,2024-04-06 02:58:17,15.08834879,0.0001346,53.216,133.4563,82.7948,277.3197,3.7527e-05,3.09e-06,0.0,0 STARLINK-3122,1 49445U 21104AP  24097.12381178  .00000309  00000-0  37527-4 0  9997,2 49445  53.2160 133.4563 0001346  82.7948 277.3197 15.08834879133783,6917.896,95.438,540.692,538.83,0.0
49445.0,STARLINK-3122,PAYLOAD,2024-04-06 09:19:50,15.08830751,0.000132,53.2158,132.2664,82.5545,277.5597,6.8689e-06,-1.79e-06,0.0,0 STARLINK-3122,1 49445U 21104AP  24097.38877641 -.00000179  00000-0  68689-5 0  9990,2 49445  53.2158 132.2664 0001320  82.5545 277.5597 15.08830751132748,6917.909,95.438,540.687,538.86,0.0
49445.0,STARLINK-3122,PAYLOAD,2024-04-06 18:52:08,15.08837205,0.0001309,53.2156,130.4813,80.2596,279.8543,2.1268e-05,5.1e-07,0.0,0 STARLINK-3122,1 49445U 21104AP  24097.78621286  .00000051  00000-0  21268-4 0  9995,2 49445  53.2156 130.4813 0001309  80.2596 279.8543 15.08837205132804,6917.889,95.438,540.659,538.848,0.0
49445.0,STARLINK-3122,PAYLOAD,2024-04-07 09:10:37,15.08831284,0.0001451,53.2166,127.8064,88.0159,272.1,-2.2058e-05,-6.39e-06,0.0,0 STARLINK-3122,1 49445U 21104AP  24098.38238085 -.00000639  00000-0 -22058-4 0  9995,2 49445  53.2166 127.8064 0001451  88.0159 272.1000 15.08831284133976,6917.907,95.438,540.776,538.768,0.0
49445.0,STARLINK-3122,PAYLOAD,2024-04-07 18:42:56,15.08838145,0.0001391,53.2174,126.0237,90.5278,269.5874,-6.3296e-06,-3.89e-06,0.0,0 STARLINK-3122,1 49445U 21104AP  24098.77981719 -.00000389  00000-0 -63296-5 0  9999,2 49445  53.2174 126.0237 0001391  90.5278 269.5874 15.08838145134031,6917.886,95.438,540.713,538.789,0.0
49445.0,STARLINK-3122,PAYLOAD,2024-04-08 10:36:47,15.08837464,0.0001472,53.217,123.0497,93.0529,267.0632,0.00010413,1.37e-05,0.0,0 STARLINK-3122,1 49445U 21104AP  24099.44221622  .00001370  00000-0  10413-3 0  9994,2 49445  53.2170 123.0497 0001472  93.0529 267.0632 15.08837464133058,6917.888,95.438,540.771,538.735,0.0
49445.0,STARLINK-3122,PAYLOAD,2024-04-09 00:55:15,15.08840461,0.0001436,53.2169,120.3728,87.4542,272.6614,0.00012443,1.693e-05,0.0,0 STARLINK-3122,1 49445U 21104AP  24100.03837396  .00001693  00000-0  12443-3 0  9996,2 49445  53.2169 120.3728 0001436  87.4542 272.6614 15.08840461133148,6917.879,95.438,540.737,538.751,0.0
49445.0,STARLINK-3122,PAYLOAD,2024-04-09 08:52:11,15.08841228,0.0001414,53.2166,118.8851,85.0521,275.0632,9.1421e-05,1.167e-05,0.0,0 STARLINK-3122,1 49445U 21104AP  24100.36957509  .00001167  00000-0  91421-4 0  9991,2 49445  53.2166 118.8851 0001414  85.0521 275.0632 15.08841228133195,6917.877,95.437,540.72,538.763,0.0
49445.0,STARLINK-3122,PAYLOAD,2024-04-09 18:24:29,15.08844207,0.000141,53.2165,117.1011,85.1805,274.9348,8.8572e-05,1.122e-05,0.0,0 STARLINK-3122,1 49445U 21104AP  24100.76701277  .00001122  00000-0  88572-4 0  9998,2 49445  53.2165 117.1011 0001410  85.1805 274.9348 15.08844207133255,6917.868,95.437,540.708,538.757,0.0
49445.0,STARLINK-3122,PAYLOAD,2024-04-10 05:32:12,15.08840271,0.0001527,53.2173,115.0193,87.2125,272.9042,2.7732e-05,1.53e-06,0.0,0 STARLINK-3122,1 49445U 21104AP  24101.23069678  .00000153  00000-0  27732-4 0  9997,2 49445  53.2173 115.0193 0001527  87.2125 272.9042 15.08840271134403,6917.88,95.438,540.801,538.688,0.0
49445.0,STARLINK-3122,PAYLOAD,2024-04-10 10:18:21,15.08843567,0.0001454,53.2167,114.1259,92.2703,267.8455,2.637e-05,1.32e-06,0.0,0 STARLINK-3122,1 49445U 21104AP  24101.42941383  .00000132  00000-0  26370-4 0  9994,2 49445  53.2167 114.1259 0001454  92.2703 267.8455 15.08843567133351,6917.869,95.437,540.74,538.729,0.0
49445.0,STARLINK-3122,PAYLOAD,2024-04-10 18:15:16,15.08853401,0.0001558,53.2176,112.6399,91.5793,268.5378,0.00010666,1.41e-05,0.0,0 STARLINK-3122,1 49445U 21104AP  24101.76060307  .00001410  00000-0  10666-3 0  9999,2 49445  53.2176 112.6399 0001558  91.5793 268.5378 15.08853401134480,6917.839,95.437,540.782,538.627,0.0
49445.0,STARLINK-3122,PAYLOAD,2024-04-11 05:22:59,15.08836523,0.0001583,53.2166,110.5571,97.8571,262.26,-4.1205e-05,-9.44e-06,0.0,0 STARLINK-3122,1 49445U 21104AP  24102.22429706 -.00000944  00000-0 -41205-4 0  9990,2 49445  53.2166 110.5571 0001583  97.8571 262.2600 15.08836523134552,6917.891,95.438,540.851,538.661,0.0
49445.0,STARLINK-3122,PAYLOAD,2024-04-11 06:58:22,15.08836069,0.0001531,53.2167,110.2598,98.1001,262.0165,-4.1735e-05,-9.52e-06,0.0,0 STARLINK-3122,1 49445U 21104AP  24102.29053735 -.00000952  00000-0 -41735-4 0  9999,2 49445  53.2167 110.2598 0001531  98.1001 262.0165 15.08836069133484,6917.892,95.438,540.817,538.698,0.0
